{
  "type": "FeatureCollection",
  "features": [
    {
      "type": "Feature",
      "properties": {
        "norad_id": 66630,
        "name": "STARLINK-35949",
        "group": "last-30-days",
        "lat": -12.416359152688043,
        "lon": -19.170688988039785,
        "alt_km": 420.6022534855192,
        "timestamp": "2025-12-20T05:41:48.741059+00:00",
        "meta_object_name": "STARLINK-35949",
        "meta_object_id": "2025-271P",
        "meta_epoch": "2025-12-19T07:10:57.240768",
        "meta_mean_motion": 15.4928529,
        "meta_eccentricity": 3.515e-05,
        "meta_inclination": 53.1593,
        "meta_ra_of_asc_node": 155.8154,
        "meta_arg_of_pericenter": 144.7691,
        "meta_mean_anomaly": 215.3341,
        "meta_ephemeris_type": 0,
        "meta_classification_type": "U",
        "meta_norad_cat_id": 66630,
        "meta_element_set_no": 999,
        "meta_rev_at_epoch": 522,
        "meta_bstar": 0.0013858023,
        "meta_mean_motion_dot": 0.00077326,
        "meta_mean_motion_ddot": 0,
        "tle_line1": "1 66630U 25271P   25353.29927362  .00077326  00000+0  13858-2 0  9997",
        "tle_line2": "2 66630  53.1593 155.8154 0000351 144.7691 215.3341 15.49285290  5222"
      },
      "geometry": {
        "type": "Point",
        "coordinates": [
          -19.170688988039785,
          -12.416359152688043
        ]
      }
    },
    {
      "type": "Feature",
      "properties": {
        "norad_id": 66631,
        "name": "STARLINK-35965",
        "group": "last-30-days",
        "lat": -7.575285875994052,
        "lon": -22.933168178412107,
        "alt_km": 432.5210688952766,
        "timestamp": "2025-12-20T05:41:48.741071+00:00",
        "meta_object_name": "STARLINK-35965",
        "meta_object_id": "2025-271Q",
        "meta_epoch": "2025-12-19T22:00:01.999584",
        "meta_mean_motion": 15.45775831,
        "meta_eccentricity": 0.00015174,
        "meta_inclination": 53.1589,
        "meta_ra_of_asc_node": 152.8698,
        "meta_arg_of_pericenter": 37.876,
        "meta_mean_anomaly": 166.1034,
        "meta_ephemeris_type": 0,
        "meta_classification_type": "U",
        "meta_norad_cat_id": 66631,
        "meta_element_set_no": 999,
        "meta_rev_at_epoch": 539,
        "meta_bstar": -0.0073982953,
        "meta_mean_motion_dot": -0.00348466,
        "meta_mean_motion_ddot": 0,
        "tle_line1": "1 66631U 25271Q   25353.91668981 -.00348466  00000+0 -73983-2 0  9999",
        "tle_line2": "2 66631  53.1589 152.8698 0001517  37.8760 166.1034 15.45775831  5393"
      },
      "geometry": {
        "type": "Point",
        "coordinates": [
          -22.933168178412107,
          -7.575285875994052
        ]
      }
    },
    {
      "type": "Feature",
      "properties": {
        "norad_id": 66632,
        "name": "STARLINK-35973",
        "group": "last-30-days",
        "lat": 8.0516824084167,
        "lon": 157.78654581528298,
        "alt_km": 446.61990618099117,
        "timestamp": "2025-12-20T05:41:48.741082+00:00",
        "meta_object_name": "STARLINK-35973",
        "meta_object_id": "2025-271R",
        "meta_epoch": "2025-12-19T18:44:52.278432",
        "meta_mean_motion": 15.39637359,
        "meta_eccentricity": 9.834e-05,
        "meta_inclination": 53.1599,
        "meta_ra_of_asc_node": 153.8489,
        "meta_arg_of_pericenter": 75.4861,
        "meta_mean_anomaly": 284.6253,
        "meta_ephemeris_type": 0,
        "meta_classification_type": "U",
        "meta_norad_cat_id": 66632,
        "meta_element_set_no": 999,
        "meta_rev_at_epoch": 525,
        "meta_bstar": 0.00082132207,
        "meta_mean_motion_dot": 0.00032612,
        "meta_mean_motion_ddot": 0,
        "tle_line1": "1 66632U 25271R   25353.78116063  .00032612  00000+0  82132-3 0  9992",
        "tle_line2": "2 66632  53.1599 153.8489 0000983  75.4861 284.6253 15.39637359  5259"
      },
      "geometry": {
        "type": "Point",
        "coordinates": [
          157.78654581528298,
          8.0516824084167
        ]
      }
    },
    {
      "type": "Feature",
      "properties": {
        "norad_id": 66633,
        "name": "STARLINK-35948",
        "group": "last-30-days",
        "lat": 9.49524840022831,
        "lon": 158.89743687589808,
        "alt_km": 446.47266755438613,
        "timestamp": "2025-12-20T05:41:48.741092+00:00",
        "meta_object_name": "STARLINK-35948",
        "meta_object_id": "2025-271S",
        "meta_epoch": "2025-12-19T17:10:55.246080",
        "meta_mean_motion": 15.39629537,
        "meta_eccentricity": 0.00010441,
        "meta_inclination": 53.1596,
        "meta_ra_of_asc_node": 154.1516,
        "meta_arg_of_pericenter": 81.5844,
        "meta_mean_anomaly": 278.5279,
        "meta_ephemeris_type": 0,
        "meta_classification_type": "U",
        "meta_norad_cat_id": 66633,
        "meta_element_set_no": 999,
        "meta_rev_at_epoch": 528,
        "meta_bstar": 0.0006790438,
        "meta_mean_motion_dot": 0.00026866,
        "meta_mean_motion_ddot": 0,
        "tle_line1": "1 66633U 25271S   25353.71591720  .00026866  00000+0  67904-3 0  9997",
        "tle_line2": "2 66633  53.1596 154.1516 0001044  81.5844 278.5279 15.39629537  5282"
      },
      "geometry": {
        "type": "Point",
        "coordinates": [
          158.89743687589808,
          9.49524840022831
        ]
      }
    },
    {
      "type": "Feature",
      "properties": {
        "norad_id": 66634,
        "name": "STARLINK-35967",
        "group": "last-30-days",
        "lat": 29.237245209070114,
        "lon": 176.45536729910094,
        "alt_km": 442.9743012913177,
        "timestamp": "2025-12-20T05:41:48.741103+00:00",
        "meta_object_name": "STARLINK-35967",
        "meta_object_id": "2025-271T",
        "meta_epoch": "2025-12-19T22:00:01.999584",
        "meta_mean_motion": 15.39592587,
        "meta_eccentricity": 0.00011266,
        "meta_inclination": 53.1602,
        "meta_ra_of_asc_node": 153.155,
        "meta_arg_of_pericenter": 60.3675,
        "meta_mean_anomaly": 358.9309,
        "meta_ephemeris_type": 0,
        "meta_classification_type": "U",
        "meta_norad_cat_id": 66634,
        "meta_element_set_no": 999,
        "meta_rev_at_epoch": 532,
        "meta_bstar": 0.001528805,
        "meta_mean_motion_dot": 0.00061188,
        "meta_mean_motion_ddot": 0,
        "tle_line1": "1 66634U 25271T   25353.91668981  .00061188  00000+0  15288-2 0  9997",
        "tle_line2": "2 66634  53.1602 153.1550 0001126  60.3675 358.9309 15.39592587  5322"
      },
      "geometry": {
        "type": "Point",
        "coordinates": [
          176.45536729910094,
          29.237245209070114
        ]
      }
    },
    {
      "type": "Feature",
      "properties": {
        "norad_id": 66635,
        "name": "STARLINK-35955",
        "group": "last-30-days",
        "lat": 53.13292655084949,
        "lon": -119.77600208922799,
        "alt_km": 439.25278096043075,
        "timestamp": "2025-12-20T05:41:48.741115+00:00",
        "meta_object_name": "STARLINK-35955",
        "meta_object_id": "2025-271U",
        "meta_epoch": "2025-12-19T22:00:01.999584",
        "meta_mean_motion": 15.3958605,
        "meta_eccentricity": 0.00011999,
        "meta_inclination": 53.1597,
        "meta_ra_of_asc_node": 153.0538,
        "meta_arg_of_pericenter": 85.7476,
        "meta_mean_anomaly": 25.0648,
        "meta_ephemeris_type": 0,
        "meta_classification_type": "U",
        "meta_norad_cat_id": 66635,
        "meta_element_set_no": 999,
        "meta_rev_at_epoch": 539,
        "meta_bstar": 0.0015804418,
        "meta_mean_motion_dot": 0.00063272,
        "meta_mean_motion_ddot": 0,
        "tle_line1": "1 66635U 25271U   25353.91668981  .00063272  00000+0  15804-2 0  9998",
        "tle_line2": "2 66635  53.1597 153.0538 0001199  85.7476  25.0648 15.39586050  5394"
      },
      "geometry": {
        "type": "Point",
        "coordinates": [
          -119.77600208922799,
          53.13292655084949
        ]
      }
    },
    {
      "type": "Feature",
      "properties": {
        "norad_id": 66636,
        "name": "STARLINK-35968",
        "group": "last-30-days",
        "lat": 45.68208364298224,
        "lon": -158.2520756793246,
        "alt_km": 440.6005277436161,
        "timestamp": "2025-12-20T05:41:48.741126+00:00",
        "meta_object_name": "STARLINK-35968",
        "meta_object_id": "2025-271V",
        "meta_epoch": "2025-12-19T22:00:01.999584",
        "meta_mean_motion": 15.39591334,
        "meta_eccentricity": 7.531e-05,
        "meta_inclination": 53.16,
        "meta_ra_of_asc_node": 153.1042,
        "meta_arg_of_pericenter": 73.1938,
        "meta_mean_anomaly": 11.8555,
        "meta_ephemeris_type": 0,
        "meta_classification_type": "U",
        "meta_norad_cat_id": 66636,
        "meta_element_set_no": 999,
        "meta_rev_at_epoch": 539,
        "meta_bstar": 0.0015071738,
        "meta_mean_motion_dot": 0.00060307,
        "meta_mean_motion_ddot": 0,
        "tle_line1": "1 66636U 25271V   25353.91668981  .00060307  00000+0  15072-2 0  9992",
        "tle_line2": "2 66636  53.1600 153.1042 0000753  73.1938  11.8555 15.39591334  5391"
      },
      "geometry": {
        "type": "Point",
        "coordinates": [
          -158.2520756793246,
          45.68208364298224
        ]
      }
    }
  ]
}